NORAD_CAT_ID,OBJECT_NAME,OBJECT_TYPE,EPOCH,MEAN_MOTION,ECCENTRICITY,INCLINATION,RA_OF_ASC_NODE,ARG_OF_PERICENTER,MEAN_ANOMALY,BSTAR,MEAN_MOTION_DOT,MEAN_MOTION_DDOT,TLE_LINE0,TLE_LINE1,TLE_LINE2,SEMIMAJOR_AXIS,PERIOD,APOGEE,PERIGEE,DECAYED
54000.0,STARLINK-5088,PAYLOAD,2022-11-17 22:00:00,15.73238733,0.0002288,53.2157,239.0243,32.0228,89.2848,-9.4512e-05,-0.00013888,0.0,0 STARLINK-5088,1 54000U 22125AN  22321.91667824 -.00013888  00000-0 -94512-4 0  9999,2 54000  53.2157 239.0243 0002288  32.0228  89.2848 15.73238733  1309,6727.785,91.531,351.189,348.11,0.0
54000.0,STARLINK-5088,PAYLOAD,2022-11-18 14:00:01,15.73177824,0.0001974,53.2153,235.7245,24.8029,274.4252,0.00016691,0.00022846,0.0,0 STARLINK-5088,1 54000U 22125AN  22322.58334491  .00022846  00000-0  16691-3 0  9997,2 54000  53.2153 235.7245 0001974  24.8029 274.4252 15.73177824  7259,6727.958000000001,91.534,351.151,348.495,0.0
54000.0,STARLINK-5088,PAYLOAD,2022-11-18 22:00:00,15.73220502,0.0001891,53.217,234.0555,30.4097,357.7745,-0.00019306,-0.00027652,0.0,0 STARLINK-5088,1 54000U 22125AN  22322.91667824 -.00027652  00000-0 -19306-3 0  9991,2 54000  53.2170 234.0555 0001891  30.4097 357.7745 15.73220502  1304,6727.837,91.532,350.974,348.42900000000014,0.0
54000.0,STARLINK-5088,PAYLOAD,2022-11-19 06:00:00,15.73260976,0.0002242,53.2156,232.4274,24.2707,92.8241,-5.702600000000001e-05,-8.639e-05,0.0,0 STARLINK-5088,1 54000U 22125AN  22323.25001157 -.00008639  00000-0 -57026-4 0  9996,2 54000  53.2156 232.4274 0002242  24.2707  92.8241 15.73260976  7367,6727.721,91.53,351.095,348.07800000000015,0.0
54000.0,STARLINK-5088,PAYLOAD,2022-11-19 14:00:01,15.73228023,0.000201,53.2158,230.7756,27.98,178.1194,5.1342e-05,6.599e-05,0.0,0 STARLINK-5088,1 54000U 22125AN  22323.58334491  .00006599  00000-0  51342-4 0  9998,2 54000  53.2158 230.7756 0002010  27.9800 178.1194 15.73228023  1302,6727.815,91.532,351.033,348.32800000000015,0.0
54000.0,STARLINK-5088,PAYLOAD,2022-11-19 20:00:01,15.73244848,0.0001978,53.216,229.5389,28.3428,154.4787,-0.00031652,-0.00044895,0.0,0 STARLINK-5088,1 54000U 22125AN  22323.83334491 -.00044895  00000-0 -31652-3 0  9990,2 54000  53.2160 229.5389 0001978  28.3428 154.4787 15.73244848  7456,6727.767,91.531,350.963,348.302,0.0
54000.0,STARLINK-5088,PAYLOAD,2022-11-19 22:00:00,15.73251586,0.0002024,53.2158,229.1272,25.3869,269.6752,-0.00053359,-0.00075014,0.0,0 STARLINK-5088,1 54000U 22125AN  22323.91667824 -.00075014  00000-0 -53359-3 0  9993,2 54000  53.2158 229.1272 0002024  25.3869 269.6752 15.73251586  1305,6727.748000000001,91.53,350.975,348.251,0.0
54000.0,STARLINK-5088,PAYLOAD,2022-11-20 14:00:01,15.73144768,0.0001846,53.2153,225.8271,26.3167,86.6375,0.000562,0.00078811,0.0,0 STARLINK-5088,1 54000U 22125AN  22324.58334491  .00078811  00000-0  56200-3 0  9992,2 54000  53.2153 225.8271 0001846  26.3167  86.6375 15.73144768  1306,6728.053000000001,91.536,351.16,348.676,0.0
54000.0,STARLINK-5088,PAYLOAD,2022-11-20 22:00:00,15.73218251,0.000195,53.2157,224.1789,25.9731,175.87400000000005,-0.00048349,-0.00067988,0.0,0 STARLINK-5088,1 54000U 22125AN  22324.91667824 -.00067988  00000-0 -48349-3 0  9998,2 54000  53.2157 224.1789 0001950  25.9731 175.8740 15.73218251  7621,6727.843000000003,91.532,351.02,348.396,0.0
54000.0,STARLINK-5088,PAYLOAD,2022-11-21 14:00:01,15.73166677,0.0001897,53.2157,220.8787,28.6502,351.02,0.00021848,0.00030109,0.0,0 STARLINK-5088,1 54000U 22125AN  22325.58334491  .00030109  00000-0  21848-3 0  9991,2 54000  53.2157 220.8787 0001897  28.6502 351.0200 15.73166677  1300,6727.99,91.535,351.131,348.579,0.0
54000.0,STARLINK-5088,PAYLOAD,2022-11-21 22:00:00,15.73201924,0.0002101,53.2156,219.2308,30.9573,77.6164,0.00019967,0.00027497,0.0,0 STARLINK-5088,1 54000U 22125AN  22325.91667824  .00027497  00000-0  19967-3 0  9992,2 54000  53.2156 219.2308 0002101  30.9573  77.6164 15.73201924  1308,6727.89,91.533,351.168,348.341,0.0
54000.0,STARLINK-5088,PAYLOAD,2022-11-22 06:00:02,15.73252529,0.0002109,53.2149,217.5818,28.7897,168.7831,-3.3864e-06,-1.098e-05,0.0,0 STARLINK-5088,1 54000U 22125AN  22326.25002315 -.00001098  00000-0 -33864-5 0  9993,2 54000  53.2149 217.5818 0002109  28.7897 168.7831 15.73252529  7833,6727.745,91.53,351.029,348.19199999999995,0.0
54000.0,STARLINK-5088,PAYLOAD,2022-11-22 14:00:01,15.73219514,0.0001776999999999,53.2149,215.9303,28.7687,257.8022,0.00024345,0.00033713,0.0,0 STARLINK-5088,1 54000U 22125AN  22326.58335648  .00033713  00000-0  24345-3 0  9996,2 54000  53.2149 215.9303 0001777  28.7687 257.8022 15.73219514  1306,6727.84,91.532,350.9,348.509,0.0
54000.0,STARLINK-5088,PAYLOAD,2022-11-22 20:00:01,15.7326981,0.0001767,53.2153,214.6942,24.9803,238.2334,-0.00068244,-0.00095606,0.0,0 STARLINK-5088,1 54000U 22125AN  22326.83334491 -.00095606  00000-0 -68244-3 0  9996,2 54000  53.2153 214.6942 0001767  24.9803 238.2334 15.73269810  7920,6727.696,91.529,350.75,348.372,0.0
54000.0,STARLINK-5088,PAYLOAD,2022-11-22 22:00:00,15.73249392,0.0001842,53.2152,214.2824,23.1485,352.3154,-0.00054946,-0.00077197,0.0,0 STARLINK-5088,1 54000U 22125AN  22326.91667824 -.00077197  00000-0 -54946-3 0  9993,2 54000  53.2152 214.2824 0001842  23.1485 352.3154 15.73249392  1302,6727.754,91.53,350.8590000000001,348.38,0.0
54000.0,STARLINK-5088,PAYLOAD,2022-11-23 06:00:00,15.73234032,0.0001985,53.215,212.6332,20.7258,83.6817,-0.00045632,-0.00064274,0.0,0 STARLINK-5088,1 54000U 22125AN  22327.25001157 -.00064274  00000-0 -45632-3 0  9996,2 54000  53.2150 212.6332 0001985  20.7258  83.6817 15.73234032  7991,6727.7980000000025,91.531,350.999,348.32800000000015,0.0
54000.0,STARLINK-5088,PAYLOAD,2022-11-23 14:00:01,15.73154708,0.0001793,53.215,210.9818,27.7482,165.6026,0.00061642,0.0008662,0.0,0 STARLINK-5088,1 54000U 22125AN  22327.58334491  .00086620  00000-0  61642-3 0  9998,2 54000  53.2150 210.9818 0001793  27.7482 165.6026 15.73154708  1307,6728.024,91.536,351.096,348.68300000000005,0.0
54000.0,STARLINK-5088,PAYLOAD,2022-11-23 22:00:00,15.73220124,0.0001953,53.2148,209.3341,24.8628,257.3977,-0.00051262,-0.00072018,0.0,0 STARLINK-5088,1 54000U 22125AN  22327.91667824 -.00072018  00000-0 -51262-3 0  9999,2 54000  53.2148 209.3341 0001953  24.8628 257.3977 15.73220124  8098,6727.8380000000025,91.532,351.017,348.389,0.0
54000.0,STARLINK-5088,PAYLOAD,2022-11-24 14:00:01,15.73213141,0.0001737,53.2141,206.0336,28.143,71.9522,-0.00010514,-0.00015358,0.0,0 STARLINK-5088,1 54000U 22125AN  22328.58334491 -.00015358  00000-0 -10514-3 0  9993,2 54000  53.2141 206.0336 0001737  28.1430  71.9522 15.73213141  8207,6727.858,91.532,350.891,348.55400000000014,0.0
54000.0,STARLINK-5088,PAYLOAD,2022-11-24 22:00:00,15.73184842,0.0002009,53.2141,204.3858,30.585,158.4544,0.00011156,0.00015054,0.0,0 STARLINK-5088,1 54000U 22125AN  22328.91667824  .00015054  00000-0  11156-3 0  9993,2 54000  53.2141 204.3858 0002009  30.5850 158.4544 15.73184842  1307,6727.938,91.534,351.155,348.452,0.0
54000.0,STARLINK-5088,PAYLOAD,2022-11-25 14:00:01,15.7322476,0.0001776999999999,53.2142,201.0848,29.9552,336.9602,-2.0506e-05,-3.501e-05,0.0,0 STARLINK-5088,1 54000U 22125AN  22329.58334491 -.00003501  00000-0 -20506-4 0  9994,2 54000  53.2142 201.0848 0001777  29.9552 336.9602 15.73224760  8357,6727.825,91.532,350.885,348.494,0.0
54000.0,STARLINK-5088,PAYLOAD,2022-11-25 22:00:00,15.73239813,0.0002014,53.2138,199.4371,27.4014,68.4743,5.2581e-05,6.777e-05,0.0,0 STARLINK-5088,1 54000U 22125AN  22329.91667824  .00006777  00000-0  52581-4 0  9994,2 54000  53.2138 199.4371 0002014  27.4014  68.4743 15.73239813  1300,6727.781999999997,91.531,351.00199999999984,348.292,0.0
54000.0,STARLINK-5088,PAYLOAD,2022-11-26 06:00:00,15.73251724,0.0002083,53.2133,197.7871,29.9096,154.946,-0.00028368,-0.00040335,0.0,0 STARLINK-5088,1 54000U 22125AN  22330.25001157 -.00040335  00000-0 -28368-3 0  9999,2 54000  53.2133 197.7871 0002083  29.9096 154.9460 15.73251724  8460,6727.748000000001,91.53,351.014,348.211,0.0
54000.0,STARLINK-5088,PAYLOAD,2022-11-26 14:00:01,15.73252824,0.0001889,53.2135,196.136,38.4002,235.4237,-0.00021115,-0.00030217,0.0,0 STARLINK-5088,1 54000U 22125AN  22330.58334491 -.00030217  00000-0 -21115-3 0  9996,2 54000  53.2135 196.1360 0001889  38.4002 235.4237 15.73252824  1308,6727.745,91.53,350.88,348.339,0.0
54000.0,STARLINK-5088,PAYLOAD,2022-11-26 22:00:00,15.732368300000005,0.0002039,53.2136,194.4883,33.8911,328.9124,-0.0009131,-0.00127066,0.0,0 STARLINK-5088,1 54000U 22125AN  22330.91667824 -.00127066  00000-0 -91310-3 0  9995,2 54000  53.2136 194.4883 0002039  33.8911 328.9124 15.73236830  1308,6727.79,91.531,351.027,348.283,0.0
54000.0,STARLINK-5088,PAYLOAD,2022-11-27 14:00:01,15.7314065,0.0001788,53.214,191.1872,31.7121,148.86700000000005,0.0005432,0.00076115,0.0,0 STARLINK-5088,1 54000U 22125AN  22331.58334491  .00076115  00000-0  54320-3 0  9996,2 54000  53.2140 191.1872 0001788  31.7121 148.8670 15.73140650  8671,6728.064,91.537,351.13199999999995,348.726,0.0
54000.0,STARLINK-5088,PAYLOAD,2022-11-27 22:00:00,15.73254443,0.000186,53.2157,189.5306,25.82800000000001,243.6295,-0.0011354,-0.00157401,0.0,0 STARLINK-5088,1 54000U 22125AN  22331.91667824 -.00157401  00000-0 -11354-2 0  9991,2 54000  53.2157 189.5306 0001860  25.8280 243.6295 15.73254443  1309,6727.74,91.53,350.856,348.35400000000016,0.0
54000.0,STARLINK-5088,PAYLOAD,2022-11-28 06:00:00,15.73125078,0.0001882,53.216,187.8712,21.5136,336.9025,-0.0034104,-0.00452964,0.0,0 STARLINK-5088,1 54000U 22125AN  22332.25001157 -.00452964  00000-0 -34104-2 0  9990,2 54000  53.2160 187.8712 0001882  21.5136 336.9025 15.73125078  8778,6728.109,91.538,351.24,348.708,0.0
54000.0,STARLINK-5088,PAYLOAD,2022-11-28 14:00:01,15.72820693,0.0003743,53.2166,186.2185,283.2727,163.8116,-0.0069918,-0.00872279,0.0,0 STARLINK-5088,1 54000U 22125AN  22332.58334491 -.00872279  00000-0 -69918-2 0  9992,2 54000  53.2166 186.2185 0003743 283.2727 163.8116 15.72820693  8831,6728.977,91.555,353.36,348.3230000000001,0.0
